start=new Date('2022-08-21T00:00:00.000Z').valueOf();
sats=[{"MEAN_ANOMALY":"344.3943","CENTER_NAME":"EARTH","REV_AT_EPOCH":"130","MEAN_MOTION_DDOT":"0.0000000000000","CLASSIFICATION_TYPE":"U","COUNTRY_CODE":"US","RA_OF_ASC_NODE":"130.5585","SEMIMAJOR_AXIS":"6917.883","OBJECT_ID":"2022-029AP","MEAN_MOTION":"15.08839059","EPHEMERIS_TYPE":"0","REF_FRAME":"TEME","NORAD_CAT_ID":"52125","OBJECT_TYPE":"PAYLOAD","RCS_SIZE":"LARGE","PERIAPSIS":"538.371","ECCENTRICITY":"0.00019910","INCLINATION":"53.2140","TLE_LINE2":"2 52125  53.2140 130.5585 0001991  63.0625 344.3943 15.08839059  1303","BSTAR":"-0.00143210000000","MEAN_ELEMENT_THEORY":"SGP4","MEAN_MOTION_DOT":"-0.00023008","FILE":"3541760","DECAY_DATE":null,"OBJECT_NAME":"STARLINK-3727","TIME_SYSTEM":"UTC","GP_ID":"210622384","SITE":"AFETR","APOAPSIS":"541.126","ELEMENT_SET_NO":"999","TLE_LINE1":"1 52125U 22029AP  22232.91667824 -.00023008  00000-0 -14321-2 0  9992","LAUNCH_DATE":"2022-03-19","PERIOD":"95.438","EPOCH":"2022-08-20T22:00:00.999936","ARG_OF_PERICENTER":"63.0625"},{"MEAN_MOTION":"15.08836391","OBJECT_ID":"2022-029AQ","SEMIMAJOR_AXIS":"6917.891","RCS_SIZE":"LARGE","OBJECT_TYPE":"PAYLOAD","NORAD_CAT_ID":"52126","REF_FRAME":"TEME","EPHEMERIS_TYPE":"0","MEAN_MOTION_DDOT":"0.0000000000000","REV_AT_EPOCH":"130","CENTER_NAME":"EARTH","MEAN_ANOMALY":"304.7437","RA_OF_ASC_NODE":"130.5579","COUNTRY_CODE":"US","CLASSIFICATION_TYPE":"U","GP_ID":"210621160","TIME_SYSTEM":"UTC","OBJECT_NAME":"STARLINK-3732","FILE":"3541760","DECAY_DATE":null,"MEAN_MOTION_DOT":"-0.00022171","MEAN_ELEMENT_THEORY":"SGP4","PERIOD":"95.438","ARG_OF_PERICENTER":"62.7853","EPOCH":"2022-08-20T22:00:00.999936","LAUNCH_DATE":"2022-03-19","TLE_LINE1":"1 52126U 22029AQ  22232.91667824 -.00022171  00000-0 -13793-2 0  9995","ELEMENT_SET_NO":"999","APOAPSIS":"541.244","SITE":"AFETR","ECCENTRICITY":"0.00021510","PERIAPSIS":"538.268","BSTAR":"-0.00137930000000","TLE_LINE2":"2 52126  53.2139 130.5579 0002151  62.7853 304.7437 15.08836391  1307","INCLINATION":"53.2139"},{"OBJECT_TYPE":"PAYLOAD","NORAD_CAT_ID":"52127","RCS_SIZE":"LARGE","REF_FRAME":"TEME","EPHEMERIS_TYPE":"0","MEAN_MOTION":"15.08838881","SEMIMAJOR_AXIS":"6917.884","OBJECT_ID":"2022-029AR","RA_OF_ASC_NODE":"130.5558","COUNTRY_CODE":"US","CLASSIFICATION_TYPE":"U","MEAN_MOTION_DDOT":"0.0000000000000","CENTER_NAME":"EARTH","MEAN_ANOMALY":"12.0018","REV_AT_EPOCH":"130","TLE_LINE1":"1 52127U 22029AR  22232.91667824 -.00023759  00000-0 -14796-2 0  9993","ELEMENT_SET_NO":"999","PERIOD":"95.438","ARG_OF_PERICENTER":"55.5281","EPOCH":"2022-08-20T22:00:00.999936","LAUNCH_DATE":"2022-03-19","SITE":"AFETR","APOAPSIS":"541.184","OBJECT_NAME":"STARLINK-3715","GP_ID":"210621412","TIME_SYSTEM":"UTC","FILE":"3541760","DECAY_DATE":null,"MEAN_ELEMENT_THEORY":"SGP4","MEAN_MOTION_DOT":"-0.00023759","TLE_LINE2":"2 52127  53.2135 130.5558 0002074  55.5281  12.0018 15.08838881  1300","BSTAR":"-0.00147960000000","INCLINATION":"53.2135","ECCENTRICITY":"0.00020740","PERIAPSIS":"538.314"},{"MEAN_MOTION_DDOT":"0.0000000000000","MEAN_ANOMALY":"39.8552","CENTER_NAME":"EARTH","REV_AT_EPOCH":"130","CLASSIFICATION_TYPE":"U","COUNTRY_CODE":"US","RA_OF_ASC_NODE":"130.5528","MEAN_MOTION":"15.08857215","SEMIMAJOR_AXIS":"6917.828","OBJECT_ID":"2022-029AT","NORAD_CAT_ID":"52129","OBJECT_TYPE":"PAYLOAD","RCS_SIZE":"LARGE","EPHEMERIS_TYPE":"0","REF_FRAME":"TEME","ECCENTRICITY":"0.00022360","PERIAPSIS":"538.146","TLE_LINE2":"2 52129  53.2146 130.5528 0002236  67.6179  39.8552 15.08857215  1303","BSTAR":"-0.00144640000000","INCLINATION":"53.2146","OBJECT_NAME":"STARLINK-3661","GP_ID":"210621659","TIME_SYSTEM":"UTC","MEAN_ELEMENT_THEORY":"SGP4","MEAN_MOTION_DOT":"-0.00023246","DECAY_DATE":null,"FILE":"3541760","ELEMENT_SET_NO":"999","TLE_LINE1":"1 52129U 22029AT  22232.91667824 -.00023246  00000-0 -14464-2 0  9998","LAUNCH_DATE":"2022-03-19","EPOCH":"2022-08-20T22:00:00.999936","PERIOD":"95.436","ARG_OF_PERICENTER":"67.6179","SITE":"AFETR","APOAPSIS":"541.240"},{"MEAN_MOTION_DDOT":"0.0000000000000","REV_AT_EPOCH":"130","MEAN_ANOMALY":"67.3873","CENTER_NAME":"EARTH","CLASSIFICATION_TYPE":"U","COUNTRY_CODE":"US","RA_OF_ASC_NODE":"130.5490","MEAN_MOTION":"15.08827520","OBJECT_ID":"2022-029AV","SEMIMAJOR_AXIS":"6917.919","RCS_SIZE":"LARGE","NORAD_CAT_ID":"52131","OBJECT_TYPE":"PAYLOAD","EPHEMERIS_TYPE":"0","REF_FRAME":"TEME","ECCENTRICITY":"0.00018000","PERIAPSIS":"538.538","BSTAR":"-0.00140010000000","TLE_LINE2":"2 52131  53.2169 130.5490 0001800  60.1270  67.3873 15.08827520  1303","INCLINATION":"53.2169","TIME_SYSTEM":"UTC","GP_ID":"210621885","OBJECT_NAME":"STARLINK-3711","MEAN_MOTION_DOT":"-0.00022494","MEAN_ELEMENT_THEORY":"SGP4","DECAY_DATE":null,"FILE":"3541760","LAUNCH_DATE":"2022-03-19","PERIOD":"95.438","ARG_OF_PERICENTER":"60.1270","EPOCH":"2022-08-20T22:00:00.999936","ELEMENT_SET_NO":"999","TLE_LINE1":"1 52131U 22029AV  22232.91667824 -.00022494  00000-0 -14001-2 0  9992","APOAPSIS":"541.029","SITE":"AFETR"},{"CLASSIFICATION_TYPE":"U","RA_OF_ASC_NODE":"130.5573","COUNTRY_CODE":"US","REV_AT_EPOCH":"130","MEAN_ANOMALY":"35.4624","CENTER_NAME":"EARTH","MEAN_MOTION_DDOT":"0.0000000000000","EPHEMERIS_TYPE":"0","REF_FRAME":"TEME","RCS_SIZE":"LARGE","NORAD_CAT_ID":"52132","OBJECT_TYPE":"PAYLOAD","OBJECT_ID":"2022-029AW","SEMIMAJOR_AXIS":"6917.843","MEAN_MOTION":"15.08852102","INCLINATION":"53.2156","BSTAR":"-0.00143770000000","TLE_LINE2":"2 52132  53.2156 130.5573 0002237  52.0209  35.4624 15.08852102  1303","PERIAPSIS":"538.161","ECCENTRICITY":"0.00022370","APOAPSIS":"541.256","SITE":"AFETR","LAUNCH_DATE":"2022-03-19","ARG_OF_PERICENTER":"52.0209","PERIOD":"95.437","EPOCH":"2022-08-20T22:00:00.999936","ELEMENT_SET_NO":"999","TLE_LINE1":"1 52132U 22029AW  22232.91667824 -.00023105  00000-0 -14377-2 0  9999","MEAN_ELEMENT_THEORY":"SGP4","MEAN_MOTION_DOT":"-0.00023105","DECAY_DATE":null,"FILE":"3541760","TIME_SYSTEM":"UTC","GP_ID":"210620661","OBJECT_NAME":"STARLINK-3718"},{"CLASSIFICATION_TYPE":"U","COUNTRY_CODE":"US","RA_OF_ASC_NODE":"130.5480","MEAN_MOTION_DDOT":"0.0000000000000","MEAN_ANOMALY":"105.9766","CENTER_NAME":"EARTH","REV_AT_EPOCH":"130","NORAD_CAT_ID":"52133","OBJECT_TYPE":"PAYLOAD","RCS_SIZE":"LARGE","EPHEMERIS_TYPE":"0","REF_FRAME":"TEME","MEAN_MOTION":"15.08841653","SEMIMAJOR_AXIS":"6917.875","OBJECT_ID":"2022-029AX","TLE_LINE2":"2 52133  53.2171 130.5480 0001513  61.5290 105.9766 15.08841653  1308","BSTAR":"-0.00125560000000","INCLINATION":"53.2171","ECCENTRICITY":"0.00015130","PERIAPSIS":"538.694","ELEMENT_SET_NO":"999","TLE_LINE1":"1 52133U 22029AX  22232.91667824 -.00020216  00000-0 -12556-2 0  9997","LAUNCH_DATE":"2022-03-19","EPOCH":"2022-08-20T22:00:00.999936","PERIOD":"95.437","ARG_OF_PERICENTER":"61.5290","SITE":"AFETR","APOAPSIS":"540.787","OBJECT_NAME":"STARLINK-3707","TIME_SYSTEM":"UTC","GP_ID":"210621912","MEAN_ELEMENT_THEORY":"SGP4","MEAN_MOTION_DOT":"-0.00020216","FILE":"3541760","DECAY_DATE":null},{"ECCENTRICITY":"0.00017590","PERIAPSIS":"538.493","BSTAR":"-0.00128950000000","TLE_LINE2":"2 52134  53.2165 130.5479 0001759  56.9388  90.5989 15.08851730  1301","INCLINATION":"53.2165","GP_ID":"210622159","TIME_SYSTEM":"UTC","OBJECT_NAME":"STARLINK-3721","MEAN_ELEMENT_THEORY":"SGP4","MEAN_MOTION_DOT":"-0.00020759","DECAY_DATE":null,"FILE":"3541760","LAUNCH_DATE":"2022-03-19","PERIOD":"95.437","EPOCH":"2022-08-20T22:00:00.999936","ARG_OF_PERICENTER":"56.9388","ELEMENT_SET_NO":"999","TLE_LINE1":"1 52134U 22029AY  22232.91667824 -.00020759  00000-0 -12895-2 0  9996","APOAPSIS":"540.926","SITE":"AFETR","MEAN_MOTION_DDOT":"0.0000000000000","REV_AT_EPOCH":"130","MEAN_ANOMALY":"90.5989","CENTER_NAME":"EARTH","CLASSIFICATION_TYPE":"U","RA_OF_ASC_NODE":"130.5479","COUNTRY_CODE":"US","MEAN_MOTION":"15.08851730","OBJECT_ID":"2022-029AY","SEMIMAJOR_AXIS":"6917.845","RCS_SIZE":"LARGE","NORAD_CAT_ID":"52134","OBJECT_TYPE":"PAYLOAD","EPHEMERIS_TYPE":"0","REF_FRAME":"TEME"},{"SITE":"AFETR","APOAPSIS":"540.870","TLE_LINE1":"1 52135U 22029AZ  22232.91667824 -.00016110  00000-0 -99608-3 0  9991","ELEMENT_SET_NO":"999","PERIOD":"95.437","ARG_OF_PERICENTER":"54.8431","EPOCH":"2022-08-20T22:00:00.999936","LAUNCH_DATE":"2022-03-19","DECAY_DATE":null,"FILE":"3541760","MEAN_ELEMENT_THEORY":"SGP4","MEAN_MOTION_DOT":"-0.00016110","OBJECT_NAME":"STARLINK-3729","TIME_SYSTEM":"UTC","GP_ID":"210622385","INCLINATION":"53.2179","TLE_LINE2":"2 52135  53.2179 130.5478 0001667  54.8431 172.6774 15.08849405  1300","BSTAR":"-0.00099608000000","PERIAPSIS":"538.563","ECCENTRICITY":"0.00016670","REF_FRAME":"TEME","EPHEMERIS_TYPE":"0","OBJECT_TYPE":"PAYLOAD","NORAD_CAT_ID":"52135","RCS_SIZE":"LARGE","SEMIMAJOR_AXIS":"6917.852","OBJECT_ID":"2022-029AZ","MEAN_MOTION":"15.08849405","COUNTRY_CODE":"US","RA_OF_ASC_NODE":"130.5478","CLASSIFICATION_TYPE":"U","CENTER_NAME":"EARTH","MEAN_ANOMALY":"172.6774","REV_AT_EPOCH":"130","MEAN_MOTION_DDOT":"0.0000000000000"},{"PERIAPSIS":"538.445","ECCENTRICITY":"0.00017710","INCLINATION":"53.2173","BSTAR":"-0.00110600000000","TLE_LINE2":"2 52136  53.2173 130.5477 0001771  57.1132 130.3579 15.08864597  1307","DECAY_DATE":null,"FILE":"3541760","MEAN_MOTION_DOT":"-0.00017859","MEAN_ELEMENT_THEORY":"SGP4","GP_ID":"210621161","TIME_SYSTEM":"UTC","OBJECT_NAME":"STARLINK-3720","APOAPSIS":"540.895","SITE":"AFETR","PERIOD":"95.436","EPOCH":"2022-08-20T22:00:00.999936","ARG_OF_PERICENTER":"57.1132","LAUNCH_DATE":"2022-03-19","TLE_LINE1":"1 52136U 22029BA  22232.91667824 -.00017859  00000-0 -11060-2 0  9998","ELEMENT_SET_NO":"999","REV_AT_EPOCH":"130","CENTER_NAME":"EARTH","MEAN_ANOMALY":"130.3579","MEAN_MOTION_DDOT":"0.0000000000000","COUNTRY_CODE":"US","RA_OF_ASC_NODE":"130.5477","CLASSIFICATION_TYPE":"U","OBJECT_ID":"2022-029BA","SEMIMAJOR_AXIS":"6917.805","MEAN_MOTION":"15.08864597","REF_FRAME":"TEME","EPHEMERIS_TYPE":"0","RCS_SIZE":"LARGE","OBJECT_TYPE":"PAYLOAD","NORAD_CAT_ID":"52136"}];
